{
    "links": {
        "self": "http://www.neowsapp.com/rest/v1/neo/3765019?api_key=iIulBulltgU6a56xZRHN4H3l9WmuAYTsLGpBGhQ2"
    },
    "id": "3765019",
    "neo_reference_id": "3765019",
    "name": "(2016 XH)",
    "designation": "2016 XH",
    "nasa_jpl_url": "http://ssd.jpl.nasa.gov/sbdb.cgi?sstr=3765019",
    "absolute_magnitude_h": 26.0,
    "estimated_diameter": {
        "kilometers": {
            "estimated_diameter_min": 0.0167708462,
            "estimated_diameter_max": 0.0375007522
        },
        "meters": {
            "estimated_diameter_min": 16.7708462163,
            "estimated_diameter_max": 37.5007521798
        },
        "miles": {
            "estimated_diameter_min": 0.0104209175,
            "estimated_diameter_max": 0.0233018799
        },
        "feet": {
            "estimated_diameter_min": 55.0224631002,
            "estimated_diameter_max": 123.0339677816
        }
    },
    "is_potentially_hazardous_asteroid": false,
    "close_approach_data": [
        {
            "close_approach_date": "2016-11-27",
            "close_approach_date_full": "2016-Nov-27 15:12",
            "epoch_date_close_approach": 1480259520000,
            "relative_velocity": {
                "kilometers_per_second": "7.0015305821",
                "kilometers_per_hour": "25205.5100955844",
                "miles_per_hour": "15661.7237591147"
            },
            "miss_distance": {
                "astronomical": "0.0491255292",
                "lunar": "19.1098308588",
                "kilometers": "7349074.530942804",
                "miles": "4566503.1619625352"
            },
            "orbiting_body": "Earth"
        }
    ],
    "orbital_data": {
        "orbit_id": "4",
        "orbit_determination_date": "2017-04-06 08:21:42",
        "first_observation_date": "2016-12-01",
        "last_observation_date": "2016-12-07",
        "data_arc_in_days": 6,
        "observations_used": 32,
        "orbit_uncertainty": "8",
        "minimum_orbit_intersection": ".0488053",
        "jupiter_tisserand_invariant": "3.375",
        "epoch_osculation": "2457724.5",
        "eccentricity": ".5482768217910637",
        "semi_major_axis": "2.292361215154874",
        "inclination": "5.434043138531023",
        "ascending_node_longitude": "66.822067978398",
        "orbital_period": "1267.719015771171",
        "perihelion_distance": "1.035512693712659",
        "perihelion_argument": "357.587500073599",
        "aphelion_distance": "3.54920973659709",
        "perihelion_time": "2457719.319300228152",
        "mean_anomaly": "1.471187143730539",
        "mean_motion": ".283974599671842",
        "equinox": "J2000",
        "orbit_class": {
            "orbit_class_type": "AMO",
            "orbit_class_description": "Near-Earth asteroid orbits similar to that of 1221 Amor",
            "orbit_class_range": "1.017 AU < q (perihelion) < 1.3 AU"
        }
    },
    "is_sentry_object": false
}